{
  "type": "FeatureCollection",
  "features": [
    {
      "type": "Feature",
      "properties": {
        "norad_id": 27954,
        "name": "GALAXY 13 (HORIZONS-1)",
        "group": "intelsat",
        "lat": -0.2394773571909909,
        "lon": -80.76132117897563,
        "alt_km": 35776.97414257445,
        "timestamp": "2025-12-19T22:41:52.046823+00:00",
        "meta_object_name": "GALAXY 13 (HORIZONS-1)",
        "meta_object_id": "2003-044A",
        "meta_epoch": "2025-12-19T15:58:31.983744",
        "meta_mean_motion": 1.00269435,
        "meta_eccentricity": 0.0002408,
        "meta_inclination": 0.9543,
        "meta_ra_of_asc_node": 86.3811,
        "meta_arg_of_pericenter": 175.8948,
        "meta_mean_anomaly": 275.8576,
        "meta_ephemeris_type": 0,
        "meta_classification_type": "U",
        "meta_norad_cat_id": 27954,
        "meta_element_set_no": 999,
        "meta_rev_at_epoch": 4477,
        "meta_bstar": 0,
        "meta_mean_motion_dot": 1.56e-06,
        "meta_mean_motion_ddot": 0,
        "tle_line1": "1 27954U 03044A   25353.66564796  .00000156  00000+0  00000+0 0  9995",
        "tle_line2": "2 27954   0.9543  86.3811 0002408 175.8948 275.8576  1.00269435 44775"
      },
      "geometry": {
        "type": "Point",
        "coordinates": [
          -80.76132117897563,
          -0.2394773571909909
        ]
      }
    },
    {
      "type": "Feature",
      "properties": {
        "norad_id": 28358,
        "name": "INTELSAT 10-02",
        "group": "intelsat",
        "lat": 0.017166627158282738,
        "lon": 68.28864130503847,
        "alt_km": 35788.54162010282,
        "timestamp": "2025-12-19T22:41:52.046847+00:00",
        "meta_object_name": "INTELSAT 10-02",
        "meta_object_id": "2004-022A",
        "meta_epoch": "2025-12-19T18:23:37.440384",
        "meta_mean_motion": 1.00270732,
        "meta_eccentricity": 8.65e-05,
        "meta_inclination": 0.019,
        "meta_ra_of_asc_node": 66.4308,
        "meta_arg_of_pericenter": 235.6744,
        "meta_mean_anomaly": 61.4488,
        "meta_ephemeris_type": 0,
        "meta_classification_type": "U",
        "meta_norad_cat_id": 28358,
        "meta_element_set_no": 999,
        "meta_rev_at_epoch": 7875,
        "meta_bstar": 0,
        "meta_mean_motion_dot": 1.4e-07,
        "meta_mean_motion_ddot": 0,
        "tle_line1": "1 28358U 04022A   25353.76640556  .00000014  00000+0  00000+0 0  9994",
        "tle_line2": "2 28358   0.0190  66.4308 0000865 235.6744  61.4488  1.00270732 78755"
      },
      "geometry": {
        "type": "Point",
        "coordinates": [
          68.28864130503847,
          0.017166627158282738
        ]
      }
    },
    {
      "type": "Feature",
      "properties": {
        "norad_id": 28626,
        "name": "XM-3 (RHYTHM)",
        "group": "intelsat",
        "lat": 0.18731299134135096,
        "lon": 149.3131793246731,
        "alt_km": 36167.65155052175,
        "timestamp": "2025-12-19T22:41:52.046861+00:00",
        "meta_object_name": "XM-3 (RHYTHM)",
        "meta_object_id": "2005-008A",
        "meta_epoch": "2025-12-19T18:35:11.564160",
        "meta_mean_motion": 0.98950046,
        "meta_eccentricity": 0.0001909,
        "meta_inclination": 0.1921,
        "meta_ra_of_asc_node": 81.9495,
        "meta_arg_of_pericenter": 278.1875,
        "meta_mean_anomaly": 88.1529,
        "meta_ephemeris_type": 0,
        "meta_classification_type": "U",
        "meta_norad_cat_id": 28626,
        "meta_element_set_no": 999,
        "meta_rev_at_epoch": 4082,
        "meta_bstar": 0,
        "meta_mean_motion_dot": 6.1e-07,
        "meta_mean_motion_ddot": 0,
        "tle_line1": "1 28626U 05008A   25353.77443940  .00000061  00000+0  00000+0 0  9998",
        "tle_line2": "2 28626   0.1921  81.9495 0001909 278.1875  88.1529  0.98950046 40820"
      },
      "geometry": {
        "type": "Point",
        "coordinates": [
          149.3131793246731,
          0.18731299134135096
        ]
      }
    },
    {
      "type": "Feature",
      "properties": {
        "norad_id": 28659,
        "name": "DIRECTV 8",
        "group": "intelsat",
        "lat": -0.02557572230552678,
        "lon": -49.778740138261114,
        "alt_km": 35776.092435408595,
        "timestamp": "2025-12-19T22:41:52.046874+00:00",
        "meta_object_name": "DIRECTV 8",
        "meta_object_id": "2005-019A",
        "meta_epoch": "2025-12-19T17:49:48.179136",
        "meta_mean_motion": 1.0027119,
        "meta_eccentricity": 0.0002837,
        "meta_inclination": 0.0186,
        "meta_ra_of_asc_node": 339.2172,
        "meta_arg_of_pericenter": 298.7344,
        "meta_mean_anomaly": 319.047,
        "meta_ephemeris_type": 0,
        "meta_classification_type": "U",
        "meta_norad_cat_id": 28659,
        "meta_element_set_no": 999,
        "meta_rev_at_epoch": 7527,
        "meta_bstar": 0,
        "meta_mean_motion_dot": 2.6e-07,
        "meta_mean_motion_ddot": 0,
        "tle_line1": "1 28659U 05019A   25353.74291874  .00000026  00000+0  00000+0 0  9991",
        "tle_line2": "2 28659   0.0186 339.2172 0002837 298.7344 319.0470  1.00271190 75277"
      },
      "geometry": {
        "type": "Point",
        "coordinates": [
          -49.778740138261114,
          -0.02557572230552678
        ]
      }
    },
    {
      "type": "Feature",
      "properties": {
        "norad_id": 28702,
        "name": "GALAXY 28 (G-28)",
        "group": "intelsat",
        "lat": -2.798277188574397,
        "lon": -19.414871219745706,
        "alt_km": 35781.72726129837,
        "timestamp": "2025-12-19T22:41:52.046886+00:00",
        "meta_object_name": "GALAXY 28 (G-28)",
        "meta_object_id": "2005-022A",
        "meta_epoch": "2025-12-19T11:26:27.362976",
        "meta_mean_motion": 1.00271143,
        "meta_eccentricity": 0.000292,
        "meta_inclination": 2.8368,
        "meta_ra_of_asc_node": 81.2048,
        "meta_arg_of_pericenter": 192.9214,
        "meta_mean_anomaly": 257.1318,
        "meta_ephemeris_type": 0,
        "meta_classification_type": "U",
        "meta_norad_cat_id": 28702,
        "meta_element_set_no": 999,
        "meta_rev_at_epoch": 5017,
        "meta_bstar": 0,
        "meta_mean_motion_dot": -1.65e-06,
        "meta_mean_motion_ddot": 0,
        "tle_line1": "1 28702U 05022A   25353.47670559 -.00000165  00000+0  00000+0 0  9990",
        "tle_line2": "2 28702   2.8368  81.2048 0002920 192.9214 257.1318  1.00271143 50171"
      },
      "geometry": {
        "type": "Point",
        "coordinates": [
          -19.414871219745706,
          -2.798277188574397
        ]
      }
    },
    {
      "type": "Feature",
      "properties": {
        "norad_id": 29236,
        "name": "GALAXY 16 (G-16)",
        "group": "intelsat",
        "lat": 0.001276394425653518,
        "lon": -29.73395325822672,
        "alt_km": 35781.770151802455,
        "timestamp": "2025-12-19T22:41:52.046898+00:00",
        "meta_object_name": "GALAXY 16 (G-16)",
        "meta_object_id": "2006-023A",
        "meta_epoch": "2025-12-19T16:13:00.599232",
        "meta_mean_motion": 1.00271377,
        "meta_eccentricity": 0.0002459,
        "meta_inclination": 0.0099,
        "meta_ra_of_asc_node": 281.5526,
        "meta_arg_of_pericenter": 343.8608,
        "meta_mean_anomaly": 327.3572,
        "meta_ephemeris_type": 0,
        "meta_classification_type": "U",
        "meta_norad_cat_id": 29236,
        "meta_element_set_no": 999,
        "meta_rev_at_epoch": 7117,
        "meta_bstar": 0,
        "meta_mean_motion_dot": -1.02e-06,
        "meta_mean_motion_ddot": 0,
        "tle_line1": "1 29236U 06023A   25353.67570138 -.00000102  00000+0  00000+0 0  9990",
        "tle_line2": "2 29236   0.0099 281.5526 0002459 343.8608 327.3572  1.00271377 71176"
      },
      "geometry": {
        "type": "Point",
        "coordinates": [
          -29.73395325822672,
          0.001276394425653518
        ]
      }
    },
    {
      "type": "Feature",
      "properties": {
        "norad_id": 29494,
        "name": "DIRECTV 9S",
        "group": "intelsat",
        "lat": -1.7866373626753185,
        "lon": -31.95023084222475,
        "alt_km": 35779.32654715446,
        "timestamp": "2025-12-19T22:41:52.046910+00:00",
        "meta_object_name": "DIRECTV 9S",
        "meta_object_id": "2006-043A",
        "meta_epoch": "2025-12-19T13:25:20.116704",
        "meta_mean_motion": 1.00271735,
        "meta_eccentricity": 0.0002813,
        "meta_inclination": 1.9568,
        "meta_ra_of_asc_node": 83.1418,
        "meta_arg_of_pericenter": 191.001,
        "meta_mean_anomaly": 274.3862,
        "meta_ephemeris_type": 0,
        "meta_classification_type": "U",
        "meta_norad_cat_id": 29494,
        "meta_element_set_no": 999,
        "meta_rev_at_epoch": 4958,
        "meta_bstar": 0,
        "meta_mean_motion_dot": -9e-07,
        "meta_mean_motion_ddot": 0,
        "tle_line1": "1 29494U 06043A   25353.55926061 -.00000090  00000+0  00000+0 0  9991",
        "tle_line2": "2 29494   1.9568  83.1418 0002813 191.0010 274.3862  1.00271735 49584"
      },
      "geometry": {
        "type": "Point",
        "coordinates": [
          -31.95023084222475,
          -1.7866373626753185
        ]
      }
    }
  ]
}